[{"OBJECT_NAME":"CHECKMATE 1","OBJECT_ID":"2023-050G","EPOCH":"2026-03-09T16:59:32.113248","MEAN_MOTION":13.84937223,"ECCENTRICITY":0.00103941,"INCLINATION":81.0073,"RA_OF_ASC_NODE":167.3434,"ARG_OF_PERICENTER":249.5974,"MEAN_ANOMALY":110.4066,"EPHEMERIS_TYPE":0,"CLASSIFICATION_TYPE":"U","NORAD_CAT_ID":56168,"ELEMENT_SET_NO":999,"REV_AT_EPOCH":14832,"BSTAR":0.00010869362,"MEAN_MOTION_DOT":1.34e-6,"MEAN_MOTION_DDOT":0},{"OBJECT_NAME":"FENGYUN 1C DEB","OBJECT_ID":"1999-025DBR","EPOCH":"2026-03-08T13:21:55.343520","MEAN_MOTION":14.02504403,"ECCENTRICITY":0.00982996,"INCLINATION":99.3707,"RA_OF_ASC_NODE":344.6876,"ARG_OF_PERICENTER":331.437,"MEAN_ANOMALY":28.143,"EPHEMERIS_TYPE":0,"CLASSIFICATION_TYPE":"U","NORAD_CAT_ID":32453,"ELEMENT_SET_NO":999,"REV_AT_EPOCH":94631,"BSTAR":0.0011628148,"MEAN_MOTION_DOT":1.819e-5,"MEAN_MOTION_DDOT":0}]
